ONEWEB-0159             
1 48062U 21025W   24245.81446139 -.00000015  00000+0 -77150-4 0  9994
2 48062  87.8855  90.2308 0001948  82.9529 277.1821 13.13469917167839
ONEWEB-0164             
1 48063U 21025X   24245.87316985  .00000459  00000+0  12224-2 0  9995
2 48063  87.8855  90.2295 0001671  86.8376 273.2945 13.13471813167833
ONEWEB-0167             
1 48064U 21025Y   24245.82635089 -.00000378  00000+0 -10708-2 0  9997
2 48064  87.8857  90.2519 0001980  86.8168 273.3188 13.13468501167804
ONEWEB-0166             
1 48065U 21025Z   24245.84777713  .00000111  00000+0  26799-3 0  9992
2 48065  87.8850  90.2277 0001911  79.6713 280.4631 13.13471398167887
ONEWEB-0151             
1 48066U 21025AA  24245.62083348  .00000089  00000+0  20905-3 0  9990
2 48066  87.8852  90.2884 0001697  88.7536 271.3788 13.13471687167792
ONEWEB-0170             
1 48067U 21025AB  24245.93348118  .00000294  00000+0  76941-3 0  9993
2 48067  87.8852  90.2288 0001267  99.5808 260.5465 13.13470970167792
ONEWEB-0168             
1 48068U 21025AC  24245.84302166 -.00000113  00000+0 -34401-3 0  9994
2 48068  87.8858  90.2188 0001823  85.1400 274.9937 13.13470340167799
ONEWEB-0173             
1 48069U 21025AD  24245.83508296 -.00000227  00000+0 -65556-3 0  9997
2 48069  87.8858  90.2302 0002028  95.7702 264.3659 13.13470548168030
